2025-313AL              
1 67282U 25313AL  26024.25530284  .00010084  00000+0  45392-3 0  9990
2 67282  97.4083 101.2819 0012110 139.6713 220.5423 15.21213347  4062
HORS 5                  
1 67283U 25313AM  26024.25348365  .00015396  00000+0  68662-3 0  9994
2 67283  97.4090 101.2873 0011914 139.5573 220.6551 15.21428389  4062
LOBACHEVSKY (RS83S)     
1 67284U 25313AN  26024.25586524  .00010180  00000+0  45946-3 0  9992
2 67284  97.4076 101.2785 0012044 139.6207 220.5925 15.21120781  4068
NASBSAT-2               
1 67285U 25313AP  26024.25235620  .00012895  00000+0  57511-3 0  9997
2 67285  97.4067 101.2799 0011543 140.9261 219.2811 15.21472548  4062
2025-313AQ              
1 67286U 25313AQ  26024.25180244  .00014690  00000+0  65444-3 0  9998
2 67286  97.4089 101.2967 0011221 136.1688 224.0441 15.21481831  4065
LUCA (RS90S)            
1 67287U 25313AR  26024.18465407  .00016089  00000+0  71347-3 0  9991
2 67287  97.4088 101.2343 0011114 138.0989 222.1100 15.21622256  4057
2025-313AS              
1 67288U 25313AS  26024.25233635  .00009983  00000+0  44705-3 0  9999
2 67288  97.4077 101.2913 0012994 130.8886 229.3478 15.21382043  4067
NASBSAT-1               
1 67289U 25313AT  26024.24817996  .00024125  00000+0  10591-2 0  9997
2 67289  97.4087 101.3025 0010887 138.3535 221.8532 15.21883693  4062
SAKHACUBE-CHOLBON (RS1*)
1 67290U 25313AU  26024.18319246  .00017504  00000+0  77339-3 0  9994
2 67290  97.4087 101.2361 0010799 137.5953 222.6119 15.21730952  4051
QMR-KWT-2 (RS95S)       
1 67291U 25313AV  26024.18215650  .00025216  00000+0  11067-2 0  9993
2 67291  97.4086 101.2378 0010587 137.6523 222.5533 15.21886563  4057
SITRO-AIS-64            
1 67292U 25313AW  26024.24729817  .00017303  00000+0  76236-3 0  9994
2 67292  97.4090 101.3049 0010462 137.1871 223.0182 15.21831833  4069
SCORPION (RS89S)        
1 67293U 25313AX  26024.25020547  .00007344  00000+0  32920-3 0  9996
2 67293  97.4088 101.2973 0012490 128.8114 231.4239 15.21452644  4067
