CCSDS_OMM_VERS = 2.0
CREATION_DATE  = 
ORIGINATOR     = 

OBJECT_NAME    = 2025-313AL
OBJECT_ID      = 2025-313AL
CENTER_NAME    = EARTH
REF_FRAME      = TEME
TIME_SYSTEM    = UTC
MEAN_ELEMENT_THEORY = SGP/SGP4

EPOCH          = 2026-01-24T06:07:38.165376
MEAN_MOTION    = 15.21213347
ECCENTRICITY   = .00121101
INCLINATION    = 97.4083
RA_OF_ASC_NODE = 101.2819
ARG_OF_PERICENTER = 139.6713
MEAN_ANOMALY   = 220.5423

EPHEMERIS_TYPE = 0
CLASSIFICATION_TYPE = U
NORAD_CAT_ID   = 67282
ELEMENT_SET_NO = 999
REV_AT_EPOCH   = 406
BSTAR          = .45391579E-3
MEAN_MOTION_DOT = .10084E-3
MEAN_MOTION_DDOT = 0

CCSDS_OMM_VERS = 2.0
CREATION_DATE  = 
ORIGINATOR     = 

OBJECT_NAME    = HORS 5
OBJECT_ID      = 2025-313AM
CENTER_NAME    = EARTH
REF_FRAME      = TEME
TIME_SYSTEM    = UTC
MEAN_ELEMENT_THEORY = SGP/SGP4

EPOCH          = 2026-01-24T06:05:00.987360
MEAN_MOTION    = 15.21428389
ECCENTRICITY   = .00119145
INCLINATION    = 97.4090
RA_OF_ASC_NODE = 101.2873
ARG_OF_PERICENTER = 139.5573
MEAN_ANOMALY   = 220.6551

EPHEMERIS_TYPE = 0
CLASSIFICATION_TYPE = U
NORAD_CAT_ID   = 67283
ELEMENT_SET_NO = 999
REV_AT_EPOCH   = 406
BSTAR          = .6866247E-3
MEAN_MOTION_DOT = .15396E-3
MEAN_MOTION_DDOT = 0

CCSDS_OMM_VERS = 2.0
CREATION_DATE  = 
ORIGINATOR     = 

OBJECT_NAME    = LOBACHEVSKY (RS83S)
OBJECT_ID      = 2025-313AN
CENTER_NAME    = EARTH
REF_FRAME      = TEME
TIME_SYSTEM    = UTC
MEAN_ELEMENT_THEORY = SGP/SGP4

EPOCH          = 2026-01-24T06:08:26.756736
MEAN_MOTION    = 15.21120781
ECCENTRICITY   = .00120443
INCLINATION    = 97.4076
RA_OF_ASC_NODE = 101.2785
ARG_OF_PERICENTER = 139.6207
MEAN_ANOMALY   = 220.5925

EPHEMERIS_TYPE = 0
CLASSIFICATION_TYPE = U
NORAD_CAT_ID   = 67284
ELEMENT_SET_NO = 999
REV_AT_EPOCH   = 406
BSTAR          = .45945537E-3
MEAN_MOTION_DOT = .1018E-3
MEAN_MOTION_DDOT = 0

CCSDS_OMM_VERS = 2.0
CREATION_DATE  = 
ORIGINATOR     = 

OBJECT_NAME    = NASBSAT-2
OBJECT_ID      = 2025-313AP
CENTER_NAME    = EARTH
REF_FRAME      = TEME
TIME_SYSTEM    = UTC
MEAN_ELEMENT_THEORY = SGP/SGP4

EPOCH          = 2026-01-24T06:03:23.575680
MEAN_MOTION    = 15.21472548
ECCENTRICITY   = .00115432
INCLINATION    = 97.4067
RA_OF_ASC_NODE = 101.2799
ARG_OF_PERICENTER = 140.9261
MEAN_ANOMALY   = 219.2811

EPHEMERIS_TYPE = 0
CLASSIFICATION_TYPE = U
NORAD_CAT_ID   = 67285
ELEMENT_SET_NO = 999
REV_AT_EPOCH   = 406
BSTAR          = .57510903E-3
MEAN_MOTION_DOT = .12895E-3
MEAN_MOTION_DDOT = 0

CCSDS_OMM_VERS = 2.0
CREATION_DATE  = 
ORIGINATOR     = 

OBJECT_NAME    = 2025-313AQ
OBJECT_ID      = 2025-313AQ
CENTER_NAME    = EARTH
REF_FRAME      = TEME
TIME_SYSTEM    = UTC
MEAN_ELEMENT_THEORY = SGP/SGP4

EPOCH          = 2026-01-24T06:02:35.730816
MEAN_MOTION    = 15.21481831
ECCENTRICITY   = .0011221
INCLINATION    = 97.4089
RA_OF_ASC_NODE = 101.2967
ARG_OF_PERICENTER = 136.1688
MEAN_ANOMALY   = 224.0441

EPHEMERIS_TYPE = 0
CLASSIFICATION_TYPE = U
NORAD_CAT_ID   = 67286
ELEMENT_SET_NO = 999
REV_AT_EPOCH   = 406
BSTAR          = .65444291E-3
MEAN_MOTION_DOT = .1469E-3
MEAN_MOTION_DDOT = 0

CCSDS_OMM_VERS = 2.0
CREATION_DATE  = 
ORIGINATOR     = 

OBJECT_NAME    = LUCA (RS90S)
OBJECT_ID      = 2025-313AR
CENTER_NAME    = EARTH
REF_FRAME      = TEME
TIME_SYSTEM    = UTC
MEAN_ELEMENT_THEORY = SGP/SGP4

EPOCH          = 2026-01-24T04:25:54.111648
MEAN_MOTION    = 15.21622256
ECCENTRICITY   = .00111147
INCLINATION    = 97.4088
RA_OF_ASC_NODE = 101.2343
ARG_OF_PERICENTER = 138.0989
MEAN_ANOMALY   = 222.1100

EPHEMERIS_TYPE = 0
CLASSIFICATION_TYPE = U
NORAD_CAT_ID   = 67287
ELEMENT_SET_NO = 999
REV_AT_EPOCH   = 405
BSTAR          = .71346553E-3
MEAN_MOTION_DOT = .16089E-3
MEAN_MOTION_DDOT = 0

CCSDS_OMM_VERS = 2.0
CREATION_DATE  = 
ORIGINATOR     = 

OBJECT_NAME    = 2025-313AS
OBJECT_ID      = 2025-313AS
CENTER_NAME    = EARTH
REF_FRAME      = TEME
TIME_SYSTEM    = UTC
MEAN_ELEMENT_THEORY = SGP/SGP4

EPOCH          = 2026-01-24T06:03:21.860640
MEAN_MOTION    = 15.21382043
ECCENTRICITY   = .00129944
INCLINATION    = 97.4077
RA_OF_ASC_NODE = 101.2913
ARG_OF_PERICENTER = 130.8886
MEAN_ANOMALY   = 229.3478

EPHEMERIS_TYPE = 0
CLASSIFICATION_TYPE = U
NORAD_CAT_ID   = 67288
ELEMENT_SET_NO = 999
REV_AT_EPOCH   = 406
BSTAR          = .44704817E-3
MEAN_MOTION_DOT = .9983E-4
MEAN_MOTION_DDOT = 0

CCSDS_OMM_VERS = 2.0
CREATION_DATE  = 
ORIGINATOR     = 

OBJECT_NAME    = NASBSAT-1
OBJECT_ID      = 2025-313AT
CENTER_NAME    = EARTH
REF_FRAME      = TEME
TIME_SYSTEM    = UTC
MEAN_ELEMENT_THEORY = SGP/SGP4

EPOCH          = 2026-01-24T05:57:22.748544
MEAN_MOTION    = 15.21883693
ECCENTRICITY   = .00108874
INCLINATION    = 97.4087
RA_OF_ASC_NODE = 101.3025
ARG_OF_PERICENTER = 138.3535
MEAN_ANOMALY   = 221.8532

EPHEMERIS_TYPE = 0
CLASSIFICATION_TYPE = U
NORAD_CAT_ID   = 67289
ELEMENT_SET_NO = 999
REV_AT_EPOCH   = 406
BSTAR          = .10590836E-2
MEAN_MOTION_DOT = .24125E-3
MEAN_MOTION_DDOT = 0

CCSDS_OMM_VERS = 2.0
CREATION_DATE  = 
ORIGINATOR     = 

OBJECT_NAME    = SAKHACUBE-CHOLBON (RS18S)
OBJECT_ID      = 2025-313AU
CENTER_NAME    = EARTH
REF_FRAME      = TEME
TIME_SYSTEM    = UTC
MEAN_ELEMENT_THEORY = SGP/SGP4

EPOCH          = 2026-01-24T04:23:47.828544
MEAN_MOTION    = 15.21730952
ECCENTRICITY   = .00107996
INCLINATION    = 97.4087
RA_OF_ASC_NODE = 101.2361
ARG_OF_PERICENTER = 137.5953
MEAN_ANOMALY   = 222.6119

EPHEMERIS_TYPE = 0
CLASSIFICATION_TYPE = U
NORAD_CAT_ID   = 67290
ELEMENT_SET_NO = 999
REV_AT_EPOCH   = 405
BSTAR          = .77338719E-3
MEAN_MOTION_DOT = .17504E-3
MEAN_MOTION_DDOT = 0

CCSDS_OMM_VERS = 2.0
CREATION_DATE  = 
ORIGINATOR     = 

OBJECT_NAME    = QMR-KWT-2 (RS95S)
OBJECT_ID      = 2025-313AV
CENTER_NAME    = EARTH
REF_FRAME      = TEME
TIME_SYSTEM    = UTC
MEAN_ELEMENT_THEORY = SGP/SGP4

EPOCH          = 2026-01-24T04:22:18.321600
MEAN_MOTION    = 15.21886563
ECCENTRICITY   = .00105875
INCLINATION    = 97.4086
RA_OF_ASC_NODE = 101.2378
ARG_OF_PERICENTER = 137.6523
MEAN_ANOMALY   = 222.5533

EPHEMERIS_TYPE = 0
CLASSIFICATION_TYPE = U
NORAD_CAT_ID   = 67291
ELEMENT_SET_NO = 999
REV_AT_EPOCH   = 405
BSTAR          = .11066561E-2
MEAN_MOTION_DOT = .25216E-3
MEAN_MOTION_DDOT = 0

CCSDS_OMM_VERS = 2.0
CREATION_DATE  = 
ORIGINATOR     = 

OBJECT_NAME    = SITRO-AIS-64
OBJECT_ID      = 2025-313AW
CENTER_NAME    = EARTH
REF_FRAME      = TEME
TIME_SYSTEM    = UTC
MEAN_ELEMENT_THEORY = SGP/SGP4

EPOCH          = 2026-01-24T05:56:06.561888
MEAN_MOTION    = 15.21831833
ECCENTRICITY   = .00104622
INCLINATION    = 97.4090
RA_OF_ASC_NODE = 101.3049
ARG_OF_PERICENTER = 137.1871
MEAN_ANOMALY   = 223.0182

EPHEMERIS_TYPE = 0
CLASSIFICATION_TYPE = U
NORAD_CAT_ID   = 67292
ELEMENT_SET_NO = 999
REV_AT_EPOCH   = 406
BSTAR          = .76236243E-3
MEAN_MOTION_DOT = .17303E-3
MEAN_MOTION_DDOT = 0

CCSDS_OMM_VERS = 2.0
CREATION_DATE  = 
ORIGINATOR     = 

OBJECT_NAME    = SCORPION (RS89S)
OBJECT_ID      = 2025-313AX
CENTER_NAME    = EARTH
REF_FRAME      = TEME
TIME_SYSTEM    = UTC
MEAN_ELEMENT_THEORY = SGP/SGP4

EPOCH          = 2026-01-24T06:00:17.752608
MEAN_MOTION    = 15.21452644
ECCENTRICITY   = .00124906
INCLINATION    = 97.4088
RA_OF_ASC_NODE = 101.2973
ARG_OF_PERICENTER = 128.8114
MEAN_ANOMALY   = 231.4239

EPHEMERIS_TYPE = 0
CLASSIFICATION_TYPE = U
NORAD_CAT_ID   = 67293
ELEMENT_SET_NO = 999
REV_AT_EPOCH   = 406
BSTAR          = .32919809E-3
MEAN_MOTION_DOT = .7344E-4
MEAN_MOTION_DDOT = 0

